[{"OBJECT_NAME":"STARLINK-31614","OBJECT_ID":"2024-057J","EPOCH":"2026-03-09T08:02:24.496800","MEAN_MOTION":15.27573229,"ECCENTRICITY":0.00010808,"INCLINATION":43.0033,"RA_OF_ASC_NODE":189.1823,"ARG_OF_PERICENTER":252.0232,"MEAN_ANOMALY":108.0502,"EPHEMERIS_TYPE":0,"CLASSIFICATION_TYPE":"U","NORAD_CAT_ID":59328,"ELEMENT_SET_NO":999,"REV_AT_EPOCH":10978,"BSTAR":-1.7321222e-5,"MEAN_MOTION_DOT":-7.39e-6,"MEAN_MOTION_DDOT":0},{"OBJECT_NAME":"OBJECT A","OBJECT_ID":"2024-203A","EPOCH":"2026-03-09T23:31:20.812800","MEAN_MOTION":15.27300571,"ECCENTRICITY":0.00108989,"INCLINATION":97.4288,"RA_OF_ASC_NODE":139.5608,"ARG_OF_PERICENTER":322.6893,"MEAN_ANOMALY":37.3588,"EPHEMERIS_TYPE":0,"CLASSIFICATION_TYPE":"U","NORAD_CAT_ID":61869,"ELEMENT_SET_NO":999,"REV_AT_EPOCH":7380,"BSTAR":0.00061472876,"MEAN_MOTION_DOT":0.00016411,"MEAN_MOTION_DDOT":0}]
